[{"OBJECT_NAME":"EDISON-1","OBJECT_ID":"2025-009B","EPOCH":"2026-03-09T19:16:13.822464","MEAN_MOTION":15.29042904,"ECCENTRICITY":0.00043285,"INCLINATION":97.4042,"RA_OF_ASC_NODE":151.6286,"ARG_OF_PERICENTER":306.4185,"MEAN_ANOMALY":53.6655,"EPHEMERIS_TYPE":0,"CLASSIFICATION_TYPE":"U","NORAD_CAT_ID":62610,"ELEMENT_SET_NO":999,"REV_AT_EPOCH":6375,"BSTAR":0.00052814963,"MEAN_MOTION_DOT":0.00014835,"MEAN_MOTION_DDOT":0},{"OBJECT_NAME":"STARLINK-34116","OBJECT_ID":"2025-095A","EPOCH":"2026-03-09T08:21:00.589536","MEAN_MOTION":15.27595514,"ECCENTRICITY":8.912e-5,"INCLINATION":42.9987,"RA_OF_ASC_NODE":178.3202,"ARG_OF_PERICENTER":237.4677,"MEAN_ANOMALY":122.6089,"EPHEMERIS_TYPE":0,"CLASSIFICATION_TYPE":"U","NORAD_CAT_ID":63890,"ELEMENT_SET_NO":999,"REV_AT_EPOCH":4773,"BSTAR":0.0013848613,"MEAN_MOTION_DOT":0.00038061,"MEAN_MOTION_DDOT":0}]
